{
    "links": {
        "self": "http://www.neowsapp.com/rest/v1/neo/3409643?api_key=iIulBulltgU6a56xZRHN4H3l9WmuAYTsLGpBGhQ2"
    },
    "id": "3409643",
    "neo_reference_id": "3409643",
    "name": "(2008 HX1)",
    "designation": "2008 HX1",
    "nasa_jpl_url": "http://ssd.jpl.nasa.gov/sbdb.cgi?sstr=3409643",
    "absolute_magnitude_h": 23.7,
    "estimated_diameter": {
        "kilometers": {
            "estimated_diameter_min": 0.0483676488,
            "estimated_diameter_max": 0.1081533507
        },
        "meters": {
            "estimated_diameter_min": 48.3676488219,
            "estimated_diameter_max": 108.1533506775
        },
        "miles": {
            "estimated_diameter_min": 0.0300542543,
            "estimated_diameter_max": 0.0672033557
        },
        "feet": {
            "estimated_diameter_min": 158.6865169607,
            "estimated_diameter_max": 354.8338390368
        }
    },
    "is_potentially_hazardous_asteroid": false,
    "close_approach_data": [
        {
            "close_approach_date": "2008-05-09",
            "close_approach_date_full": "2008-May-09 12:32",
            "epoch_date_close_approach": 1210336320000,
            "relative_velocity": {
                "kilometers_per_second": "10.8054040879",
                "kilometers_per_hour": "38899.4547162784",
                "miles_per_hour": "24170.6084041231"
            },
            "miss_distance": {
                "astronomical": "0.0643578975",
                "lunar": "25.0352221275",
                "kilometers": "9627804.383678325",
                "miles": "5982440.234577885"
            },
            "orbiting_body": "Earth"
        }
    ],
    "orbital_data": {
        "orbit_id": "6",
        "orbit_determination_date": "2017-04-06 09:03:39",
        "first_observation_date": "2008-04-26",
        "last_observation_date": "2008-04-28",
        "data_arc_in_days": 2,
        "observations_used": 19,
        "orbit_uncertainty": "9",
        "minimum_orbit_intersection": ".0125729",
        "jupiter_tisserand_invariant": "3.400",
        "epoch_osculation": "2454583.5",
        "eccentricity": ".5863325795172258",
        "semi_major_axis": "2.213151230584232",
        "inclination": "6.833648169820592",
        "ascending_node_longitude": "212.7744342905708",
        "orbital_period": "1202.583010485477",
        "perihelion_distance": ".9155085606940566",
        "perihelion_argument": "47.60103118593316",
        "aphelion_distance": "3.510793900474408",
        "perihelion_time": "2454621.017467628791",
        "mean_anomaly": "348.768934677605",
        "mean_motion": ".2993556343812556",
        "equinox": "J2000",
        "orbit_class": {
            "orbit_class_type": "APO",
            "orbit_class_description": "Near-Earth asteroid orbits which cross the Earth’s orbit similar to that of 1862 Apollo",
            "orbit_class_range": "a (semi-major axis) > 1.0 AU; q (perihelion) < 1.017 AU"
        }
    },
    "is_sentry_object": false
}